0 GLOBALSTAR M080
1 38041U 11080B   13282.00920943 -.00000095  00000-0  47954-4 0  5588
2 38041 052.0055 085.5777 0000954 123.6403 026.6033 12.62270348 83782
0 GLOBALSTAR M080
1 38041U 11080B   13283.48833775 -.00000103  00000-0  41113-5 0  5590
2 38041 052.0058 081.0749 0000931 124.5534 270.3719 12.62270557 83977
0 GLOBALSTAR M080
1 38041U 11080B   13285.80938763 -.00000118  00000-0 -78661-4 0  5618
2 38041 052.0063 074.0092 0000863 132.2813 015.0235 12.62270771 84264
0 GLOBALSTAR M080
1 38041U 11080B   13286.84252394 -.00000125  00000-0 -11965-3 0  5624
2 38041 052.0066 070.8643 0000841 133.7437 030.5939 12.62270754 84395
0 GLOBALSTAR M080
1 38041U 11080B   13287.94851459 -.00000126  00000-0 -12445-3 0  5639
2 38041 052.0069 067.4976 0000800 139.2420 013.3525 12.62270734 84531
0 GLOBALSTAR M080
1 38041U 11080B   13288.97397579 -.00000110  00000-0 -34439-4 0  5643
2 38041 052.0071 064.3761 0000802 135.6844 359.0492 12.62270646 84663
0 GLOBALSTAR M080
1 38041U 11080B   13290.53842557 -.00000102  00000-0  11679-4 0  5651
2 38041 052.0074 059.6140 0000762 139.9587 267.3621 12.62270443 84862
0 GLOBALSTAR M080
1 38041U 11080B   13291.81573639 -.00000085  00000-0  10417-3 0  5664
2 38041 052.0075 055.7260 0000740 141.7771 312.6869 12.62270394 85027
0 GLOBALSTAR M080
1 38041U 11080B   13292.92963523 -.00000086  00000-0  97557-4 0  5675
2 38041 052.0076 052.3354 0000703 145.2425 333.4306 12.62270455 85169
0 GLOBALSTAR M080
1 38041U 11080B   13294.10329650 -.00000086  00000-0  10131-3 0  5687
2 38041 052.0077 048.7628 0000667 149.5408 265.0446 12.62270533 85319
0 GLOBALSTAR M080
1 38041U 11080B   13295.45374181 -.00000098  00000-0  31019-4 0  5698
2 38041 052.0078 044.6523 0000646 148.9821 285.2424 12.62270668 85485
